CCSDS_OMM_VERS = 2.0
CREATION_DATE  = 
ORIGINATOR     = 

OBJECT_NAME    = SL-16 R/B
OBJECT_ID      = 1996-051B
CENTER_NAME    = EARTH
REF_FRAME      = TEME
TIME_SYSTEM    = UTC
MEAN_ELEMENT_THEORY = SGP/SGP4

EPOCH          = 2025-10-29T12:11:31.486848
MEAN_MOTION    = 14.12392389
ECCENTRICITY   = .0017155
INCLINATION    = 70.7582
RA_OF_ASC_NODE = 92.9029
ARG_OF_PERICENTER = 318.2104
MEAN_ANOMALY   = 41.7704

EPHEMERIS_TYPE = 0
CLASSIFICATION_TYPE = U
NORAD_CAT_ID   = 24298
ELEMENT_SET_NO = 999
REV_AT_EPOCH   = 50312
BSTAR          = -.16386E-4
MEAN_MOTION_DOT = -.8E-6
MEAN_MOTION_DDOT = 0

CCSDS_OMM_VERS = 2.0
CREATION_DATE  = 
ORIGINATOR     = 

OBJECT_NAME    = ORBVIEW 2 (SEASTAR)
OBJECT_ID      = 1997-037A
CENTER_NAME    = EARTH
REF_FRAME      = TEME
TIME_SYSTEM    = UTC
MEAN_ELEMENT_THEORY = SGP/SGP4

EPOCH          = 2025-10-29T10:36:46.350432
MEAN_MOTION    = 14.35366136
ECCENTRICITY   = .0003241
INCLINATION    = 98.8439
RA_OF_ASC_NODE = 98.4091
ARG_OF_PERICENTER = 89.4591
MEAN_ANOMALY   = 270.6965

EPHEMERIS_TYPE = 0
CLASSIFICATION_TYPE = U
NORAD_CAT_ID   = 24883
ELEMENT_SET_NO = 999
REV_AT_EPOCH   = 48964
BSTAR          = .19111E-3
MEAN_MOTION_DOT = .502E-5
MEAN_MOTION_DDOT = 0

CCSDS_OMM_VERS = 2.0
CREATION_DATE  = 
ORIGINATOR     = 

OBJECT_NAME    = SL-16 R/B
OBJECT_ID      = 1998-043G
CENTER_NAME    = EARTH
REF_FRAME      = TEME
TIME_SYSTEM    = UTC
MEAN_ELEMENT_THEORY = SGP/SGP4

EPOCH          = 2025-10-29T10:53:56.489856
MEAN_MOTION    = 14.26008647
ECCENTRICITY   = .0010576
INCLINATION    = 98.8044
RA_OF_ASC_NODE = 250.0417
ARG_OF_PERICENTER = 39.8947
MEAN_ANOMALY   = 320.3008

EPHEMERIS_TYPE = 0
CLASSIFICATION_TYPE = U
NORAD_CAT_ID   = 25400
ELEMENT_SET_NO = 999
REV_AT_EPOCH   = 42028
BSTAR          = .79188E-4
MEAN_MOTION_DOT = .144E-5
MEAN_MOTION_DDOT = 0

CCSDS_OMM_VERS = 2.0
CREATION_DATE  = 
ORIGINATOR     = 

OBJECT_NAME    = SL-16 R/B
OBJECT_ID      = 1998-045B
CENTER_NAME    = EARTH
REF_FRAME      = TEME
TIME_SYSTEM    = UTC
MEAN_ELEMENT_THEORY = SGP/SGP4

EPOCH          = 2025-10-29T11:27:03.532608
MEAN_MOTION    = 14.16163296
ECCENTRICITY   = .0009158
INCLINATION    = 71.0090
RA_OF_ASC_NODE = 97.5061
ARG_OF_PERICENTER = 235.0071
MEAN_ANOMALY   = 125.0193

EPHEMERIS_TYPE = 0
CLASSIFICATION_TYPE = U
NORAD_CAT_ID   = 25407
ELEMENT_SET_NO = 999
REV_AT_EPOCH   = 40852
BSTAR          = .17146E-3
MEAN_MOTION_DOT = .292E-5
MEAN_MOTION_DDOT = 0

CCSDS_OMM_VERS = 2.0
CREATION_DATE  = 
ORIGINATOR     = 

OBJECT_NAME    = ISS (ZARYA)
OBJECT_ID      = 1998-067A
CENTER_NAME    = EARTH
REF_FRAME      = TEME
TIME_SYSTEM    = UTC
MEAN_ELEMENT_THEORY = SGP/SGP4

EPOCH          = 2025-10-29T11:44:55.862016
MEAN_MOTION    = 15.49579513
ECCENTRICITY   = .0004808
INCLINATION    = 51.6347
RA_OF_ASC_NODE = 1.5519
ARG_OF_PERICENTER = 353.3325
MEAN_ANOMALY   = 6.7599

EPHEMERIS_TYPE = 0
CLASSIFICATION_TYPE = U
NORAD_CAT_ID   = 25544
ELEMENT_SET_NO = 999
REV_AT_EPOCH   = 53599
BSTAR          = .24977E-3
MEAN_MOTION_DOT = .13618E-3
MEAN_MOTION_DDOT = 0

CCSDS_OMM_VERS = 2.0
CREATION_DATE  = 
ORIGINATOR     = 

OBJECT_NAME    = CZ-4B R/B
OBJECT_ID      = 1999-025C
CENTER_NAME    = EARTH
REF_FRAME      = TEME
TIME_SYSTEM    = UTC
MEAN_ELEMENT_THEORY = SGP/SGP4

EPOCH          = 2025-10-29T12:50:28.810752
MEAN_MOTION    = 14.18227282
ECCENTRICITY   = .0037131
INCLINATION    = 98.6837
RA_OF_ASC_NODE = 344.7885
ARG_OF_PERICENTER = 3.8509
MEAN_ANOMALY   = 162.6058

EPHEMERIS_TYPE = 0
CLASSIFICATION_TYPE = U
NORAD_CAT_ID   = 25732
ELEMENT_SET_NO = 999
REV_AT_EPOCH   = 36957
BSTAR          = .75215E-4
MEAN_MOTION_DOT = .112E-5
MEAN_MOTION_DDOT = 0

CCSDS_OMM_VERS = 2.0
CREATION_DATE  = 
ORIGINATOR     = 

OBJECT_NAME    = OKEAN-O
OBJECT_ID      = 1999-039A
CENTER_NAME    = EARTH
REF_FRAME      = TEME
TIME_SYSTEM    = UTC
MEAN_ELEMENT_THEORY = SGP/SGP4

EPOCH          = 2025-10-29T10:35:40.409952
MEAN_MOTION    = 14.80048706
ECCENTRICITY   = .0001822
INCLINATION    = 97.9666
RA_OF_ASC_NODE = 358.5138
ARG_OF_PERICENTER = 78.0460
MEAN_ANOMALY   = 282.0956

EPHEMERIS_TYPE = 0
CLASSIFICATION_TYPE = U
NORAD_CAT_ID   = 25860
ELEMENT_SET_NO = 999
REV_AT_EPOCH   = 41497
BSTAR          = .14087E-3
MEAN_MOTION_DOT = .1014E-4
MEAN_MOTION_DDOT = 0

CCSDS_OMM_VERS = 2.0
CREATION_DATE  = 
ORIGINATOR     = 

OBJECT_NAME    = SL-16 R/B
OBJECT_ID      = 1999-039B
CENTER_NAME    = EARTH
REF_FRAME      = TEME
TIME_SYSTEM    = UTC
MEAN_ELEMENT_THEORY = SGP/SGP4

EPOCH          = 2025-10-29T09:53:01.476096
MEAN_MOTION    = 14.81490769
ECCENTRICITY   = .0014073
INCLINATION    = 98.0191
RA_OF_ASC_NODE = 356.5464
ARG_OF_PERICENTER = 327.9435
MEAN_ANOMALY   = 32.0920

EPHEMERIS_TYPE = 0
CLASSIFICATION_TYPE = U
NORAD_CAT_ID   = 25861
ELEMENT_SET_NO = 999
REV_AT_EPOCH   = 41742
BSTAR          = .11861E-3
MEAN_MOTION_DOT = .877E-5
MEAN_MOTION_DDOT = 0

CCSDS_OMM_VERS = 2.0
CREATION_DATE  = 
ORIGINATOR     = 

OBJECT_NAME    = HELIOS 1B
OBJECT_ID      = 1999-064A
CENTER_NAME    = EARTH
REF_FRAME      = TEME
TIME_SYSTEM    = UTC
MEAN_ELEMENT_THEORY = SGP/SGP4

EPOCH          = 2025-10-29T11:07:20.766720
MEAN_MOTION    = 14.87008904
ECCENTRICITY   = .0002391
INCLINATION    = 98.1755
RA_OF_ASC_NODE = 195.8237
ARG_OF_PERICENTER = 103.0073
MEAN_ANOMALY   = 257.1409

EPHEMERIS_TYPE = 0
CLASSIFICATION_TYPE = U
NORAD_CAT_ID   = 25977
ELEMENT_SET_NO = 999
REV_AT_EPOCH   = 66575
BSTAR          = .32111E-3
MEAN_MOTION_DOT = .2818E-4
MEAN_MOTION_DDOT = 0

CCSDS_OMM_VERS = 2.0
CREATION_DATE  = 
ORIGINATOR     = 

OBJECT_NAME    = TERRA
OBJECT_ID      = 1999-068A
CENTER_NAME    = EARTH
REF_FRAME      = TEME
TIME_SYSTEM    = UTC
MEAN_ELEMENT_THEORY = SGP/SGP4

EPOCH          = 2025-10-29T11:57:31.595040
MEAN_MOTION    = 14.60874580
ECCENTRICITY   = .0001353
INCLINATION    = 97.9814
RA_OF_ASC_NODE = 355.7904
ARG_OF_PERICENTER = 206.2744
MEAN_ANOMALY   = 265.3146

EPHEMERIS_TYPE = 0
CLASSIFICATION_TYPE = U
NORAD_CAT_ID   = 25994
ELEMENT_SET_NO = 999
REV_AT_EPOCH   = 37592
BSTAR          = .14428E-3
MEAN_MOTION_DOT = .661E-5
MEAN_MOTION_DDOT = 0

CCSDS_OMM_VERS = 2.0
CREATION_DATE  = 
ORIGINATOR     = 

OBJECT_NAME    = SL-16 R/B
OBJECT_ID      = 2000-006B
CENTER_NAME    = EARTH
REF_FRAME      = TEME
TIME_SYSTEM    = UTC
MEAN_ELEMENT_THEORY = SGP/SGP4

EPOCH          = 2025-10-29T12:42:04.300416
MEAN_MOTION    = 14.15795918
ECCENTRICITY   = .0015905
INCLINATION    = 71.0044
RA_OF_ASC_NODE = 13.6164
ARG_OF_PERICENTER = 13.6114
MEAN_ANOMALY   = 346.5434

EPHEMERIS_TYPE = 0
CLASSIFICATION_TYPE = U
NORAD_CAT_ID   = 26070
ELEMENT_SET_NO = 999
REV_AT_EPOCH   = 32999
BSTAR          = .18109E-3
MEAN_MOTION_DOT = .309E-5
MEAN_MOTION_DDOT = 0

