SL-16 R/B               
1 24298U 96051B   25302.50800332 -.00000080  00000+0 -16386-4 0  9996
2 24298  70.7582  92.9029 0017155 318.2104  41.7704 14.12392389503121
ORBVIEW 2 (SEASTAR)     
1 24883U 97037A   25302.44220313  .00000502  00000+0  19111-3 0  9994
2 24883  98.8439  98.4091 0003241  89.4591 270.6965 14.35366136489649
SL-16 R/B               
1 25400U 98043G   25302.45412604  .00000144  00000+0  79188-4 0  9998
2 25400  98.8044 250.0417 0010576  39.8947 320.3008 14.26008647420284
SL-16 R/B               
1 25407U 98045B   25302.47712422  .00000292  00000+0  17146-3 0  9999
2 25407  71.0090  97.5061 0009158 235.0071 125.0193 14.16163296408525
ISS (ZARYA)             
1 25544U 98067A   25302.48953544  .00013618  00000+0  24977-3 0  9994
2 25544  51.6347   1.5519 0004808 353.3325   6.7599 15.49579513535999
CZ-4B R/B               
1 25732U 99025C   25302.53505568  .00000112  00000+0  75215-4 0  9990
2 25732  98.6837 344.7885 0037131   3.8509 162.6058 14.18227282369576
OKEAN-O                 
1 25860U 99039A   25302.44143993  .00001014  00000+0  14087-3 0  9998
2 25860  97.9666 358.5138 0001822  78.0460 282.0956 14.80048706414972
SL-16 R/B               
1 25861U 99039B   25302.41182264  .00000877  00000+0  11861-3 0  9993
2 25861  98.0191 356.5464 0014073 327.9435  32.0920 14.81490769417426
HELIOS 1B               
1 25977U 99064A   25302.46343480  .00002818  00000+0  32111-3 0  9991
2 25977  98.1755 195.8237 0002391 103.0073 257.1409 14.87008904665759
TERRA                   
1 25994U 99068A   25302.49828235  .00000661  00000+0  14428-3 0  9998
2 25994  97.9814 355.7904 0001353 206.2744 265.3146 14.60874580375925
SL-16 R/B               
1 26070U 00006B   25302.52921644  .00000309  00000+0  18109-3 0  9999
2 26070  71.0044  13.6164 0015905  13.6114 346.5434 14.15795918329991
